<?xml version="1.0" encoding="UTF-8"?>
<kml xmlns="http://www.opengis.net/kml/2.2">
  <Document>
    <name>Circuit de Barcelona-Catalunya</name>
    <Placemark>
      <name>Circuito</name>
      <LineString>
        <coordinates>
          2.2579,41.5698,95
          2.2591,41.5698,95
          2.2603,41.5700,95
          2.2610,41.5703,95
          2.2621,41.5707,95
          2.2635,41.5712,95
          2.2645,41.5718,95
          2.2655,41.5724,95
          2.2662,41.5731,95
          2.2668,41.5739,95
          2.2672,41.5747,95
          2.2676,41.5755,95
          2.2680,41.5764,95
          2.2678,41.5773,95
          2.2675,41.5782,95
          2.2670,41.5791,95
          2.2665,41.5800,95
          2.2658,41.5809,95
          2.2648,41.5816,95
          2.2637,41.5821,95
          2.2625,41.5824,95
          2.2612,41.5824,95
          2.2600,41.5822,95
          2.2589,41.5816,95
          2.2580,41.5809,95
          2.2575,41.5800,95
          2.2572,41.5791,95
          2.2571,41.5782,95
          2.2572,41.5773,95
        </coordinates>
      </LineString>
    </Placemark>
  </Document>
</kml>